OSCAR 7 (AO-7)          
1 07530U 74089B   19036.90438345 -.00000054  00000-0 -59841-4 0  9990
2 07530 101.7254   6.0281 0011843 243.4170 130.1593 12.53636495 23889
UOSAT 2 (UO-11)         
1 14781U 84021B   19036.51652016  .00000078  00000-0  15669-4 0  9997
2 14781  97.6250  67.4321 0009461  44.8850 315.3128 14.83061665879023
LUSAT (LO-19)           
1 20442U 90005G   19035.87986853 -.00000012  00000-0  11678-4 0  9999
2 20442  98.6357 338.2072 0011672 178.5793 181.5426 14.32916490517159
ITAMSAT                 
1 22826U 93061D   19036.87521718 -.00000019  00000-0  10487-4 0  9992
2 22826  98.8853  22.5720 0009311  21.3083 338.8485 14.30383340323165
RADIO ROSTO (RS-15)     
1 23439U 94085A   19035.96802024 -.00000038  00000-0  11867-3 0  9994
2 23439  64.8203 332.3765 0149201 138.8892 302.7019 11.27567471992813
JAS-2 (FO-29)           
1 24278U 96046B   19036.08020897 -.00000050  00000-0 -12997-4 0  9990
2 24278  98.5165 207.7455 0349651 226.4823 130.6772 13.53088979109733
TECHSAT 1B (GO-32)      
1 25397U 98043D   19036.08542103 -.00000024  00000-0  84416-5 0  9997
2 25397  98.6763 337.9460 0002341  75.0733 285.0705 14.23659571 68862
ISS (ZARYA)             
1 25544U 98067A   19036.80731266  .00001596  00000-0  32322-4 0  9999
2 25544  51.6434 294.5893 0005121 357.4459 113.7764 15.53236427154840
PCSAT (NO-44)           
1 26931U 01043C   19036.31335868 -.00000053  00000-0  11600-4 0  9996
2 26931  67.0528 347.8566 0005466 267.7237  92.3239 14.30531204905897
SAUDISAT 1C (SO-50)     
1 27607U 02058C   19035.62210965  .00000008  00000-0  21953-4 0  9998
2 27607  64.5549  99.4885 0081683 281.9575  77.2379 14.75517124867253
CUTE-1 (CO-55)          
1 27844U 03031E   19036.82305110  .00000043  00000-0  39160-4 0  9991
2 27844  98.6861  47.0089 0010722  59.1979 301.0253 14.22158483809408
CUBESAT XI-IV (CO-57)   
1 27848U 03031J   19036.00337033  .00000029  00000-0  33071-4 0  9993
2 27848  98.6941  46.6697 0010725  71.4636 288.7705 14.21756295809149
MOZHAYETS 4 (RS-22)     
1 27939U 03042A   19036.81837858  .00000032  00000-0  14353-4 0  9991
2 27939  98.0178 175.3981 0014056 125.5262 234.7264 14.66751469821062
CUBESAT XI 5            
1 28895U 05043F   19036.88340102  .00000106  00000-0  29112-4 0  9995
2 28895  97.9369 184.3351 0017784  54.2612 306.0242 14.63627775708065
CUTE-1.7+APD II (CO-65) 
1 32785U 08021C   19036.83235324  .00000190  00000-0  26216-4 0  9996
2 32785  97.5472  42.8372 0012760 350.3793   9.7178 14.88245176583928
DELFI-C3 (DO-64)        
1 32789U 08021G   19036.13771907  .00001092  00000-0  77665-4 0  9991
2 32789  97.4835  89.7283 0011523 215.7684 144.2773 15.06633056586854
SEEDS II (CO-66)        
1 32791U 08021J   19035.99908804  .00000250  00000-0  30802-4 0  9992
2 32791  97.5297  47.8496 0012516 329.0169  31.0310 14.90727147584193
YUBILEINY (RS-30)       
1 32953U 08025A   19036.68500806  .00000021  00000-0  75656-4 0  9995
2 32953  82.4998 227.4581 0019783  60.9146 299.3910 12.43087435485789
KKS-1 (KISEKI)          
1 33499U 09002H   19036.54837434  .00000101  00000-0  23016-4 0  9994
2 33499  98.3540 230.9455 0007977 270.6668  89.3626 14.75403905539595
SWISSCUBE               
1 35932U 09051B   19035.68281171  .00000105  00000-0  34711-4 0  9995
2 35932  98.5699 197.8524 0007171 209.3348 150.7447 14.56241059497275
BEESAT                  
1 35933U 09051C   19036.03777388  .00000078  00000-0  28618-4 0  9994
2 35933  98.5735 199.9051 0005159 220.0952 139.9865 14.56335604497431
ITUPSAT 1               
1 35935U 09051E   19036.43113957  .00000067  00000-0  26648-4 0  9995
2 35935  98.5846 200.5552 0007518 217.6920 142.3750 14.55501966497255
XIWANG-1 (HOPE-1)       
1 36122U 09072B   19036.42343613 -.00000015  00000-0  70566-4 0  9992
2 36122 100.0713  45.0756 0007004 297.2910  62.7490 13.16348519439348
JUGNU                   
1 37839U 11058B   19034.48270000  .00000300  00000-0  17980-4 0  9995
2 37839  19.9623  74.6929 0018659 277.3154 224.0947 14.12640753378006
SRMSAT                  
1 37841U 11058D   19035.53539516  .00000298  00000-0  18708-4 0  9990
2 37841  19.9718 122.3076 0011808 162.1329 314.2459 14.10624042377721
M-CUBED & EXP-1 PRIME   
1 37855U 11061F   19036.19460033  .00001529  00000-0  84406-4 0  9995
2 37855 101.7268 223.1609 0174537 112.3804 249.6004 15.05113896396691
STRAND-1                
1 39090U 13009E   19035.84879383  .00000019  00000-0  22055-4 0  9990
2 39090  98.4996 243.9417 0008633 333.1843  26.8896 14.35069412311192
SOMP                    
1 39134U 13015E   19035.59839699  .00001289  00000-0  69171-4 0  9994
2 39134  64.8636  94.7510 0017651 321.0095  38.9758 15.19783936320211
BEESAT-3                
1 39135U 13015F   19036.01089349  .00001066  00000-0  63223-4 0  9997
2 39135  64.8707 109.8731 0010286 270.2251  89.7696 15.17183875319969
BEESAT-2                
1 39136U 13015G   19036.13031410  .00000855  00000-0  53431-4 0  9992
2 39136  64.8695 112.9120 0010001 288.4284  71.5754 15.16618594319914
ZACUBE-1 (TSHEPISOSAT)  
1 39417U 13066B   19035.93683636  .00000206  00000-0  32138-4 0  9991
2 39417  97.5702  56.9027 0060417 112.0478 248.7167 14.81049441281244
GOMX 1                  
1 39430U 13066Q   19036.80075361  .00000214  00000-0  48092-4 0  9998
2 39430  97.7279   2.2462 0150453 313.8073  45.0771 14.59193544277220
CUBEBUG-2 (LO-74)       
1 39440U 13066AA  19036.79462948  .00000148  00000-0  27536-4 0  9994
2 39440  97.5996  43.1049 0080970 155.7914 204.7135 14.75788392280370
FUNCUBE-1 (AO-73)       
1 39444U 13066AE  19035.94308999  .00000253  00000-0  37338-4 0  9997
2 39444  97.5696  58.7150 0059592 106.6158 254.1610 14.81854731279538
UWE-3                   
1 39446U 13066AG  19036.48495400  .00000182  00000-0  30683-4 0  9990
2 39446  97.5835  49.6445 0071196 133.9340 226.7777 14.78322889279585
SPROUT                  
1 39770U 14029E   19036.75472282  .00000648  00000-0  78144-4 0  9994
2 39770  97.8788 141.0005 0009370 155.6813 204.4845 14.87164181255071
UNISAT-6                
1 40012U 14033C   19036.21141684  .00000159  00000-0  31057-4 0  9999
2 40012  97.7768 268.4078 0058628 167.0693 193.2036 14.73922203249023
DUCHIFAT-1              
1 40021U 14033M   19036.76168014  .00000264  00000-0  32842-4 0  9995
2 40021  97.9219 320.9513 0014010 124.5386 235.7157 14.90513975251747
QB50P1                  
1 40025U 14033R   19036.50016226  .00000246  00000-0  32275-4 0  9998
2 40025  97.9071 316.4035 0013430 133.0589 227.1755 14.88860589251507
NUDT-PHONESAT           
1 40900U 15049B   19036.74951600  .00002380  00000-0  10647-3 0  9997
2 40900  97.4394  47.4260 0011531 295.9499 150.0494 15.22232555187430
ZDPS 2A                 
1 40901U 15049C   19036.82291845  .00001045  00000-0  55469-4 0  9994
2 40901  97.4594  44.5887 0012257 310.7130 172.8400 15.17488383187086
ZDPS 2B                 
1 40902U 15049D   19036.82906341  .00000810  00000-0  44000-4 0  9997
2 40902  97.4522  42.2694 0012385 307.7041 174.1996 15.17265071187068
XW-2A                   
1 40903U 15049E   19036.77662797  .00002228  00000-0  55425-4 0  9994
2 40903  97.3568  78.6868 0011914 267.2752 183.6581 15.41332302189774
KAITUO 1A               
1 40904U 15049F   19036.80938748  .00000697  00000-0  40519-4 0  9997
2 40904  97.4641  41.1247 0013467 313.7006 170.0245 15.15238846186872
2015-049G               
1 40905U 15049G   19036.78907019  .00000668  00000-0  40149-4 0  9999
2 40905  97.4658  38.8253 0014400 306.7641 138.3742 15.14175767186764
XW-2C                   
1 40906U 15049H   19036.82686669  .00000545  00000-0  32256-4 0  9994
2 40906  97.4650  41.1436 0013596 304.7888 132.9951 15.15493904186874
XW-2D                   
1 40907U 15049J   19036.74993568  .00000627  00000-0  36412-4 0  9994
2 40907  97.4624  40.7460 0012827 302.6048 111.4695 15.15667901186876
LILACSAT 2              
1 40908U 15049K   19036.85744889  .00000574  00000-0  35442-4 0  9990
2 40908  97.4748  39.8977 0014539 306.4902 138.7967 15.13696175186719
XW-2F                   
1 40910U 15049M   19036.77304664  .00001010  00000-0  54422-4 0  9992
2 40910  97.4601  42.5073 0013412 295.2584 150.5911 15.17010125186864
XW-2B                   
1 40911U 15049N   19036.84829186  .00000732  00000-0  41964-4 0  9999
2 40911  97.4647  41.4561 0012834 302.8674 141.5736 15.15604722186783
KAITUO 1B               
1 40912U 15049P   19036.74697068  .00001401  00000-0  69537-4 0  9991
2 40912  97.4501  45.8474 0013459 278.2520 200.3428 15.19287797187128
TIANWANG 1C (TW-1C)     
1 40926U 15051B   19036.83188773  .00011600  00000-0  18783-3 0  9995
2 40926  97.1568  83.3047 0009891 134.5325 312.9735 15.52904255189527
TIANWANG 1A (TW-1A)     
1 40928U 15051D   19036.83310201  .00003504  00000-0  89914-4 0  9999
2 40928  97.1617  71.0327 0010978 186.2853 228.0465 15.39936522188722
LAPAN-A2                
1 40931U 15052B   19034.12703952  .00000715  00000-0  10589-4 0  9996
2 40931   5.9971 303.2279 0013133  35.0098 325.1687 14.76596938181192
E-ST@R-II               
1 41459U 16025D   19036.85387268  .00001188  00000-0  64639-4 0  9993
2 41459  98.1116 116.6951 0170734  84.6455 277.4198 15.05061838152568
AAUSAT 4                
1 41460U 16025E   19036.85450532  .00002054  00000-0  10696-3 0  9996
2 41460  98.1058 117.6278 0160730  78.7376 283.1853 15.06776479152667
NUSAT-1 (FRESCO)        
1 41557U 16033B   19036.88983691  .00001281  00000-0  51252-4 0  9997
2 41557  97.4242 125.1757 0015198  51.7503 308.5101 15.26851831149827
BEESAT-4                
1 41619U 16040W   19036.13396494  .00001441  00000-0  64612-4 0  9993
2 41619  97.3861 100.7495 0012808 128.4557 231.7831 15.22746566133538
CAS-2T & KS-1Q          
1 41847U 16066G   19035.94083784  .00000049  00000-0  18895-4 0  9992
2 41847  98.7249  74.4049 0364931 272.7625  83.1854 14.37955784117775
NAYIF-1 (EO-88)         
1 42017U 17008BX  19036.13135289  .00001545  00000-0  64608-4 0  9994
2 42017  97.4203 104.5215 0004679 282.9044  77.1671 15.25114746109560
LILACSAT-1              
1 42725U 98067ME  19036.58597395  .00106299  15320-4  33866-3 0  9991
2 42725  51.6311 233.4394 0000417 157.3621 302.0461 15.91035054 97368
MAX VALIER SAT          
1 42778U 17036P   19036.12098880  .00000921  00000-0  43625-4 0  9996
2 42778  97.3737  96.6137 0011711 340.4713  19.6073 15.21749446 89928
RADFXSAT (FOX-1B)       
1 43017U 17073E   19036.06679713  .00000435  00000-0  40124-4 0  9998
2 43017  97.7214 322.6811 0257553 233.3263 124.4030 14.78382162 65512
FOX-1D (AO-92)          
1 43137U 18004AC  19036.15075508  .00001015  00000-0  45958-4 0  9993
2 43137  97.5049 104.1587 0009633  14.8316 345.3202 15.23176254 59160
ES'HAIL 2               
1 43700U 18090A   19035.55487788  .00000137  00000-0  00000+0 0  9992
2 43700   0.0156  98.0986 0000865 238.4630  23.4344  1.00268690   959
FOX-1CLIFF (AO-95)      
1 43770U 18099N   19036.14996085  .00000649  00000-0  65081-4 0  9992
2 43770  97.7607 109.6363 0015926  62.5709 297.7128 14.94671916  9473
ITASAT 1                
1 43786U 18099AE  19036.20048977  .00000405  00000-0  42233-4 0  9998
2 43786  97.7619 109.7372 0016368  57.1262 303.1531 14.95054939  9481
JY1SAT (JO-97)          
1 43803U 18099AX  19036.19600323  .00000323  00000-0  34626-4 0  9991
2 43803  97.7575 109.7038 0016323  57.9489 302.3314 14.95165578  9472
